0 FENGYUN 1C DEB
1 30848U 99025AWJ 13281.38648307  .00001083  00000-0  55941-3 0  6279
2 30848 098.9861 342.9721 0059283 142.0901 278.4551 14.16266594341237
0 FENGYUN 1C DEB
1 30848U 99025AWJ 13284.01233947  .00001271  00000-0  65255-3 0  6281
2 30848 098.9861 345.6217 0059224 134.8121 346.3966 14.16275982341602
0 FENGYUN 1C DEB
1 30848U 99025AWJ 13286.97996706  .00001272  00000-0  65297-3 0  6295
2 30848 098.9859 348.6165 0059147 126.5629 356.9715 14.16282116342022
0 FENGYUN 1C DEB
1 30848U 99025AWJ 13289.37023270  .00001342  00000-0  68783-3 0  6302
2 30848 098.9851 351.0287 0059052 119.9350 303.8890 14.16291481342366
0 FENGYUN 1C DEB
1 30848U 99025AWJ 13291.41764009  .00001315  00000-0  67427-3 0  6317
2 30848 098.9848 353.0944 0058961 114.2000 302.8295 14.16297640342655
0 FENGYUN 1C DEB
1 30848U 99025AWJ 13294.38533714  .00001461  00000-0  74627-3 0  6326
2 30848 098.9846 356.0886 0058833 105.9064 314.0421 14.16305349343075
